CCSDS_OMM_VERS = 2.0
CREATION_DATE  = 
ORIGINATOR     = 

OBJECT_NAME    = MR-2
OBJECT_ID      = 2026-015A
CENTER_NAME    = EARTH
REF_FRAME      = TEME
TIME_SYSTEM    = UTC
MEAN_ELEMENT_THEORY = SGP/SGP4

EPOCH          = 2026-02-21T14:05:18.153888
MEAN_MOTION    = 13.52686952
ECCENTRICITY   = .0004948
INCLINATION    = 88.9958
RA_OF_ASC_NODE = 280.3003
ARG_OF_PERICENTER = 67.2913
MEAN_ANOMALY   = 292.8762

EPHEMERIS_TYPE = 0
CLASSIFICATION_TYPE = U
NORAD_CAT_ID   = 67556
ELEMENT_SET_NO = 999
REV_AT_EPOCH   = 408
BSTAR          = .6239849E-4
MEAN_MOTION_DOT = .53E-6
MEAN_MOTION_DDOT = 0

CCSDS_OMM_VERS = 2.0
CREATION_DATE  = 
ORIGINATOR     = 

OBJECT_NAME    = MR-1
OBJECT_ID      = 2026-015B
CENTER_NAME    = EARTH
REF_FRAME      = TEME
TIME_SYSTEM    = UTC
MEAN_ELEMENT_THEORY = SGP/SGP4

EPOCH          = 2026-02-21T14:06:05.674752
MEAN_MOTION    = 13.52662148
ECCENTRICITY   = .00049945
INCLINATION    = 88.9956
RA_OF_ASC_NODE = 280.3004
ARG_OF_PERICENTER = 66.1226
MEAN_ANOMALY   = 294.0449

EPHEMERIS_TYPE = 0
CLASSIFICATION_TYPE = U
NORAD_CAT_ID   = 67557
ELEMENT_SET_NO = 999
REV_AT_EPOCH   = 408
BSTAR          = .69162262E-4
MEAN_MOTION_DOT = .58E-6
MEAN_MOTION_DDOT = 0

CCSDS_OMM_VERS = 2.0
CREATION_DATE  = 
ORIGINATOR     = 

OBJECT_NAME    = ELECTRON R/B
OBJECT_ID      = 2026-015C
CENTER_NAME    = EARTH
REF_FRAME      = TEME
TIME_SYSTEM    = UTC
MEAN_ELEMENT_THEORY = SGP/SGP4

EPOCH          = 2026-02-21T13:55:27.066432
MEAN_MOTION    = 16.26155145
ECCENTRICITY   = .01012619
INCLINATION    = 88.9371
RA_OF_ASC_NODE = 279.2702
ARG_OF_PERICENTER = 154.8497
MEAN_ANOMALY   = 205.7789

EPHEMERIS_TYPE = 0
CLASSIFICATION_TYPE = U
NORAD_CAT_ID   = 67558
ELEMENT_SET_NO = 999
REV_AT_EPOCH   = 459
BSTAR          = .56564089E-3
MEAN_MOTION_DOT = .14379184E+0
MEAN_MOTION_DDOT = -.2333906E-5

CCSDS_OMM_VERS = 2.0
CREATION_DATE  = 
ORIGINATOR     = 

OBJECT_NAME    = ELECTRON KICK STAGE R/B
OBJECT_ID      = 2026-015D
CENTER_NAME    = EARTH
REF_FRAME      = TEME
TIME_SYSTEM    = UTC
MEAN_ELEMENT_THEORY = SGP/SGP4

EPOCH          = 2026-02-21T15:07:52.026528
MEAN_MOTION    = 14.68868015
ECCENTRICITY   = .05262834
INCLINATION    = 89.0486
RA_OF_ASC_NODE = 279.8115
ARG_OF_PERICENTER = 229.2541
MEAN_ANOMALY   = 126.1860

EPHEMERIS_TYPE = 0
CLASSIFICATION_TYPE = U
NORAD_CAT_ID   = 67559
ELEMENT_SET_NO = 999
REV_AT_EPOCH   = 443
BSTAR          = .84143007E-3
MEAN_MOTION_DOT = .50477E-3
MEAN_MOTION_DDOT = -.120758E-6

CCSDS_OMM_VERS = 2.0
CREATION_DATE  = 
ORIGINATOR     = 

OBJECT_NAME    = STARLINK-36426
OBJECT_ID      = 2026-014AA
CENTER_NAME    = EARTH
REF_FRAME      = TEME
TIME_SYSTEM    = UTC
MEAN_ELEMENT_THEORY = SGP/SGP4

EPOCH          = 2026-02-21T14:21:35.205696
MEAN_MOTION    = 15.75248467
ECCENTRICITY   = .0001604
INCLINATION    = 97.2841
RA_OF_ASC_NODE = 296.7883
ARG_OF_PERICENTER = 103.5771
MEAN_ANOMALY   = 256.5673

EPHEMERIS_TYPE = 0
CLASSIFICATION_TYPE = U
NORAD_CAT_ID   = 67560
ELEMENT_SET_NO = 999
REV_AT_EPOCH   = 603
BSTAR          = .10162288E-2
MEAN_MOTION_DOT = .154614E-2
MEAN_MOTION_DDOT = 0

CCSDS_OMM_VERS = 2.0
CREATION_DATE  = 
ORIGINATOR     = 

OBJECT_NAME    = STARLINK-36621
OBJECT_ID      = 2026-016A
CENTER_NAME    = EARTH
REF_FRAME      = TEME
TIME_SYSTEM    = UTC
MEAN_ELEMENT_THEORY = SGP/SGP4

EPOCH          = 2026-02-21T03:30:12.551904
MEAN_MOTION    = 15.75373692
ECCENTRICITY   = .0001668
INCLINATION    = 97.2829
RA_OF_ASC_NODE = 111.7343
ARG_OF_PERICENTER = 132.8174
MEAN_ANOMALY   = 227.3232

EPHEMERIS_TYPE = 0
CLASSIFICATION_TYPE = U
NORAD_CAT_ID   = 67561
ELEMENT_SET_NO = 999
REV_AT_EPOCH   = 419
BSTAR          = .24596954E-2
MEAN_MOTION_DOT = .386932E-2
MEAN_MOTION_DDOT = 0

CCSDS_OMM_VERS = 2.0
CREATION_DATE  = 
ORIGINATOR     = 

OBJECT_NAME    = STARLINK-36398
OBJECT_ID      = 2026-016B
CENTER_NAME    = EARTH
REF_FRAME      = TEME
TIME_SYSTEM    = UTC
MEAN_ELEMENT_THEORY = SGP/SGP4

EPOCH          = 2026-02-21T14:21:13.863168
MEAN_MOTION    = 15.75256443
ECCENTRICITY   = .00006667
INCLINATION    = 97.2845
RA_OF_ASC_NODE = 112.1882
ARG_OF_PERICENTER = 268.1682
MEAN_ANOMALY   = 91.9507

EPHEMERIS_TYPE = 0
CLASSIFICATION_TYPE = U
NORAD_CAT_ID   = 67562
ELEMENT_SET_NO = 999
REV_AT_EPOCH   = 426
BSTAR          = .12848151E-2
MEAN_MOTION_DOT = .196548E-2
MEAN_MOTION_DDOT = 0

CCSDS_OMM_VERS = 2.0
CREATION_DATE  = 
ORIGINATOR     = 

OBJECT_NAME    = STARLINK-36403
OBJECT_ID      = 2026-016C
CENTER_NAME    = EARTH
REF_FRAME      = TEME
TIME_SYSTEM    = UTC
MEAN_ELEMENT_THEORY = SGP/SGP4

EPOCH          = 2026-02-21T14:00:01.999872
MEAN_MOTION    = 15.75457702
ECCENTRICITY   = .00015199
INCLINATION    = 97.2836
RA_OF_ASC_NODE = 112.2908
ARG_OF_PERICENTER = 70.3530
MEAN_ANOMALY   = 114.1582

EPHEMERIS_TYPE = 0
CLASSIFICATION_TYPE = U
NORAD_CAT_ID   = 67563
ELEMENT_SET_NO = 999
REV_AT_EPOCH   = 555
BSTAR          = -.36737608E-2
MEAN_MOTION_DOT = -.522005E-2
MEAN_MOTION_DDOT = 0

CCSDS_OMM_VERS = 2.0
CREATION_DATE  = 
ORIGINATOR     = 

OBJECT_NAME    = STARLINK-36593
OBJECT_ID      = 2026-016D
CENTER_NAME    = EARTH
REF_FRAME      = TEME
TIME_SYSTEM    = UTC
MEAN_ELEMENT_THEORY = SGP/SGP4

EPOCH          = 2026-02-21T14:00:01.999872
MEAN_MOTION    = 15.75149817
ECCENTRICITY   = .00015488
INCLINATION    = 97.2838
RA_OF_ASC_NODE = 112.2753
ARG_OF_PERICENTER = 98.5513
MEAN_ANOMALY   = 52.1165

EPHEMERIS_TYPE = 0
CLASSIFICATION_TYPE = U
NORAD_CAT_ID   = 67564
ELEMENT_SET_NO = 999
REV_AT_EPOCH   = 540
BSTAR          = .15820947E-3
MEAN_MOTION_DOT = .23492E-3
MEAN_MOTION_DDOT = 0

CCSDS_OMM_VERS = 2.0
CREATION_DATE  = 
ORIGINATOR     = 

OBJECT_NAME    = STARLINK-35725
OBJECT_ID      = 2026-016E
CENTER_NAME    = EARTH
REF_FRAME      = TEME
TIME_SYSTEM    = UTC
MEAN_ELEMENT_THEORY = SGP/SGP4

EPOCH          = 2026-02-21T03:12:25.698528
MEAN_MOTION    = 15.75268311
ECCENTRICITY   = .00015394
INCLINATION    = 97.2836
RA_OF_ASC_NODE = 111.7507
ARG_OF_PERICENTER = 8.2367
MEAN_ANOMALY   = 351.8923

EPHEMERIS_TYPE = 0
CLASSIFICATION_TYPE = U
NORAD_CAT_ID   = 67565
ELEMENT_SET_NO = 999
REV_AT_EPOCH   = 419
BSTAR          = .12351192E-2
MEAN_MOTION_DOT = .188866E-2
MEAN_MOTION_DDOT = 0

CCSDS_OMM_VERS = 2.0
CREATION_DATE  = 
ORIGINATOR     = 

OBJECT_NAME    = STARLINK-36394
OBJECT_ID      = 2026-016F
CENTER_NAME    = EARTH
REF_FRAME      = TEME
TIME_SYSTEM    = UTC
MEAN_ELEMENT_THEORY = SGP/SGP4

EPOCH          = 2026-02-21T03:14:58.076160
MEAN_MOTION    = 15.75375040
ECCENTRICITY   = .00023062
INCLINATION    = 97.2831
RA_OF_ASC_NODE = 111.7445
ARG_OF_PERICENTER = 112.7849
MEAN_ANOMALY   = 247.3660

EPHEMERIS_TYPE = 0
CLASSIFICATION_TYPE = U
NORAD_CAT_ID   = 67566
ELEMENT_SET_NO = 999
REV_AT_EPOCH   = 419
BSTAR          = .25696487E-2
MEAN_MOTION_DOT = .405128E-2
MEAN_MOTION_DDOT = 0

CCSDS_OMM_VERS = 2.0
CREATION_DATE  = 
ORIGINATOR     = 

OBJECT_NAME    = STARLINK-36352
OBJECT_ID      = 2026-016G
CENTER_NAME    = EARTH
REF_FRAME      = TEME
TIME_SYSTEM    = UTC
MEAN_ELEMENT_THEORY = SGP/SGP4

EPOCH          = 2026-02-21T14:00:01.999872
MEAN_MOTION    = 15.77074125
ECCENTRICITY   = .00017283
INCLINATION    = 97.2842
RA_OF_ASC_NODE = 112.3006
ARG_OF_PERICENTER = 78.0806
MEAN_ANOMALY   = 138.9594

EPHEMERIS_TYPE = 0
CLASSIFICATION_TYPE = U
NORAD_CAT_ID   = 67567
ELEMENT_SET_NO = 999
REV_AT_EPOCH   = 546
BSTAR          = -.12736302E-1
MEAN_MOTION_DOT = -.1811715E-1
MEAN_MOTION_DDOT = 0

