MR-2                    
1 67556U 26015A   26052.58701567  .00000053  00000+0  62398-4 0  9996
2 67556  88.9958 280.3003 0004948  67.2913 292.8762 13.52686952  4082
MR-1                    
1 67557U 26015B   26052.58756568  .00000058  00000+0  69162-4 0  9999
2 67557  88.9956 280.3004 0004994  66.1226 294.0449 13.52662148  4085
ELECTRON R/B            
1 67558U 26015C   26052.58017438  .14379184 -23339-5  56564-3 0  9998
2 67558  88.9371 279.2702 0101261 154.8497 205.7789 16.26155145  4599
ELECTRON KICK STAGE R/B 
1 67559U 26015D   26052.63046327  .00050477 -12076-6  84143-3 0  9991
2 67559  89.0486 279.8115 0526283 229.2541 126.1860 14.68868015  4435
STARLINK-36426          
1 67560U 26014AA  26052.59832414  .00154614  00000+0  10162-2 0  9990
2 67560  97.2841 296.7883 0001604 103.5771 256.5673 15.75248467  6037
STARLINK-36621          
1 67561U 26016A   26052.14597861  .00386932  00000+0  24597-2 0  9995
2 67561  97.2829 111.7343 0001668 132.8174 227.3232 15.75373692  4194
STARLINK-36398          
1 67562U 26016B   26052.59807712  .00196548  00000+0  12848-2 0  9992
2 67562  97.2845 112.1882 0000666 268.1682  91.9507 15.75256443  4262
STARLINK-36403          
1 67563U 26016C   26052.58335648 -.00522005  00000+0 -36738-2 0  9993
2 67563  97.2836 112.2908 0001519  70.3530 114.1582 15.75457702  5551
STARLINK-36593          
1 67564U 26016D   26052.58335648  .00023492  00000+0  15821-3 0  9999
2 67564  97.2838 112.2753 0001548  98.5513  52.1165 15.75149817  5404
STARLINK-35725          
1 67565U 26016E   26052.13363077  .00188866  00000+0  12351-2 0  9999
2 67565  97.2836 111.7507 0001539   8.2367 351.8923 15.75268311  4196
STARLINK-36394          
1 67566U 26016F   26052.13539440  .00405128  00000+0  25696-2 0  9998
2 67566  97.2831 111.7445 0002306 112.7849 247.3660 15.75375040  4197
STARLINK-36352          
1 67567U 26016G   26052.58335648 -.01811715  00000+0 -12736-1 0  9998
2 67567  97.2842 112.3006 0001728  78.0806 138.9594 15.77074125  5468
